OBJECT_NAME,OBJECT_ID,EPOCH,MEAN_MOTION,ECCENTRICITY,INCLINATION,RA_OF_ASC_NODE,ARG_OF_PERICENTER,MEAN_ANOMALY,EPHEMERIS_TYPE,CLASSIFICATION_TYPE,NORAD_CAT_ID,ELEMENT_SET_NO,REV_AT_EPOCH,BSTAR,MEAN_MOTION_DOT,MEAN_MOTION_DDOT
STARLINK-4789,2022-114BC,2026-06-10T19:43:40.889856,15.08811466,.00010899,53.1614,205.8847,81.0935,279.0180,0,U,53868,999,20745,.25971133E-3,.3845E-4,0
STARLINK-4810,2022-114BD,2026-06-10T20:51:11.895552,15.08832414,.00010519,53.1606,215.4329,89.5571,270.5541,0,U,53869,999,20732,.21087401E-4,.48E-6,0
STARLINK-4732,2022-114BE,2026-06-10T19:48:58.797792,15.08830033,.00012172,53.1608,205.8918,85.3911,274.7219,0,U,53870,999,20745,.28623907E-4,.168E-5,0
STARLINK-4740,2022-114BF,2026-06-10T09:34:14.272320,15.08832227,.00011736,53.1629,207.4994,88.0842,272.0284,0,U,53871,999,20739,.79922745E-4,.984E-5,0
STARLINK-5028,2022-119A,2026-06-10T13:46:01.975872,15.08831848,.00013043,53.1614,267.3220,86.1042,274.0098,0,U,53886,999,20570,.1526442E-5,-.264E-5,0
STARLINK-5029,2022-119B,2026-06-10T13:30:06.826464,15.08833921,.00010122,53.1603,267.2526,86.6692,273.4415,0,U,53887,999,20570,.29264718E-4,.178E-5,0
STARLINK-5034,2022-119C,2026-06-11T08:00:01.999872,15.98942335,.0001937,53.2120,231.5646,50.8953,306.5932,0,U,53888,999,600,.90985305E-3,.446787E-2,.95642672E-4
STARLINK-5031,2022-119D,2026-06-10T13:35:25.021248,15.08838028,.00012758,53.1619,267.2746,92.6283,267.4855,0,U,53889,999,20570,.7628217E-4,.926E-5,0
STARLINK-5050,2022-119E,2026-06-10T22:11:22.199136,15.08823859,.00011407,53.1615,230.2982,78.6887,281.4233,0,U,53890,999,20625,.20695792E-3,.3006E-4,0
STARLINK-5041,2022-119F,2026-06-11T08:00:01.999872,15.42695791,.00012416,53.2169,255.2115,83.7645,274.6336,0,U,53891,999,581,.18141939E-2,.80809E-3,0
STARLINK-5046,2022-119G,2026-06-11T00:05:59.498304,15.08832600,.00013318,53.1614,265.0326,86.5148,273.5996,0,U,53892,999,20577,-.57973603E-4,-.121E-4,0
STARLINK-5052,2022-119H,2026-06-11T00:23:16.454688,15.08836628,.00012057,53.1612,265.1053,86.0866,274.0263,0,U,53893,999,20577,.25716562E-4,.121E-5,0
STARLINK-5043,2022-119J,2026-06-11T08:00:01.999872,15.44238142,.00010441,53.2180,258.7034,62.1558,297.5489,0,U,53894,999,569,.15248212E-1,.775502E-2,0
STARLINK-5032,2022-119K,2026-06-11T08:00:01.999872,15.84925959,.00015163,53.2157,240.3627,54.5044,238.8858,0,U,53895,999,595,.21336384E-2,.541611E-2,0
STARLINK-5037,2022-119L,2026-06-11T00:00:40.500000,15.08831625,.0000827,53.1599,265.0108,82.0263,278.0823,0,U,53896,999,20577,.1249336E-4,-.89E-6,0
STARLINK-5035,2022-119M,2026-06-11T08:00:01.999872,15.61868317,.00009789,53.2174,250.5876,88.2151,88.5769,0,U,53897,999,589,.67169277E-2,.643306E-2,0
STARLINK-5044,2022-119N,2026-06-10T14:12:26.506944,15.08829773,.00011976,53.1598,266.7280,85.0399,275.0729,0,U,53898,999,20571,.31758976E-4,.217E-5,0
STARLINK-5042,2022-119P,2026-06-11T08:00:01.999872,15.87867498,.00013035,53.2150,240.8092,55.6164,358.6213,0,U,53899,999,590,.20729671E-2,.612041E-2,0
STARLINK-5045,2022-119Q,2026-06-10T23:34:08.457312,15.08833546,.00012754,53.1614,264.8962,92.1877,267.9260,0,U,53900,999,20577,.33875339E-4,.251E-5,0
STARLINK-5021,2022-119S,2026-06-10T10:52:23.127744,15.08845285,.00012478,53.1613,217.3877,75.7361,284.3769,0,U,53902,999,20639,.52589558E-4,.549E-5,0
STARLINK-5022,2022-119T,2026-06-10T14:24:26.093664,15.08830724,.00012546,53.1603,266.7764,84.1057,276.0077,0,U,53903,999,20571,.45982834E-4,.444E-5,0
STARLINK-4787,2022-119U,2026-06-11T05:50:22.840224,15.08832529,.0001118,53.1598,263.6814,83.2242,276.8877,0,U,53904,999,20581,-.4299979E-5,-.356E-5,0
STARLINK-5003,2022-119V,2026-06-10T23:14:23.795808,15.08783649,.00010881,53.1602,255.5381,106.3313,253.7798,0,U,53905,999,20590,.64016848E-3,.99E-4,0
STARLINK-5054,2022-119W,2026-06-10T23:40:46.537536,15.08837562,.00012707,53.1616,254.9527,84.3616,275.7520,0,U,53906,999,20591,.50941232E-4,.523E-5,0
STARLINK-5057,2022-119Y,2026-06-10T23:03:45.959040,15.08815109,.00010205,53.1597,255.4917,85.2079,274.9029,0,U,53908,999,20590,.2752422E-3,.4093E-4,0
STARLINK-4796,2022-119Z,2026-06-10T13:47:21.804288,15.08765715,.00014058,53.1842,257.3585,78.0964,282.0185,0,U,53909,999,20584,-.68784579E-3,-.11196E-3,0
STARLINK-5048,2022-119AB,2026-06-10T13:36:45.226368,15.08829995,.00013316,53.1607,257.3006,83.6559,276.4584,0,U,53911,999,20584,.28280665E-4,.162E-5,0
STARLINK-5059,2022-119AC,2026-06-10T23:30:10.203264,15.08832001,.00009838,53.1627,254.9080,98.9656,261.1447,0,U,53912,999,20591,.36336231E-4,.29E-5,0
STARLINK-5053,2022-119AD,2026-06-10T13:10:13.214784,15.08828633,.00012898,53.1626,257.1857,85.7205,274.3934,0,U,53913,999,20584,.18788226E-4,.11E-6,0
STARLINK-5040,2022-119AE,2026-06-10T13:04:54.821280,15.08831305,.00014168,53.1639,257.1673,90.5110,269.6044,0,U,53914,999,20584,.29216737E-4,.177E-5,0
