1 53868U 22114BC 26161.82200104 .00003845 00000+0 25971-3 0 9999 
2 53868 53.1614 205.8847 0001089 81.0935 279.0180 15.08811466207455 
1 53869U 22114BD 26161.86888768 .00000048 00000+0 21087-4 0 9999 
2 53869 53.1606 215.4329 0001051 89.5571 270.5541 15.08832414207326 
1 53870U 22114BE 26161.82568053 .00000168 00000+0 28624-4 0 9996 
2 53870 53.1608 205.8918 0001217 85.3911 274.7219 15.08830033207450 
1 53871U 22114BF 26161.39877630 .00000984 00000+0 79923-4 0 9997 
2 53871 53.1629 207.4994 0001173 88.0842 272.0284 15.08832227207393 
1 53886U 22119A 26161.57363398 -.00000264 00000+0 15264-5 0 9990 
2 53886 53.1614 267.3220 0001304 86.1042 274.0098 15.08831848205703 
1 53887U 22119B 26161.56257901 .00000178 00000+0 29265-4 0 9990 
2 53887 53.1603 267.2526 0001012 86.6692 273.4415 15.08833921205702 
1 53888U 22119C 26162.33335648 .00446787 95643-4 90985-3 0 9990 
2 53888 53.2120 231.5646 0001937 50.8953 306.5932 15.98942335 6007 
1 53889U 22119D 26161.56626182 .00000926 00000+0 76282-4 0 9995 
2 53889 53.1619 267.2746 0001275 92.6283 267.4855 15.08838028205703 
1 53890U 22119E 26161.92456249 .00003006 00000+0 20696-3 0 9991 
2 53890 53.1615 230.2982 0001140 78.6887 281.4233 15.08823859206251 
1 53891U 22119F 26162.33335648 .00080809 00000+0 18142-2 0 9995 
2 53891 53.2169 255.2115 0001241 83.7645 274.6336 15.42695791 5810 
1 53892U 22119G 26162.00416086 -.00001210 00000+0 -57974-4 0 9995 
2 53892 53.1614 265.0326 0001331 86.5148 273.5996 15.08832600205778 
1 53893U 22119H 26162.01616267 .00000121 00000+0 25717-4 0 9998 
2 53893 53.1612 265.1053 0001205 86.0866 274.0263 15.08836628205774 
1 53894U 22119J 26162.33335648 .00775502 00000+0 15248-1 0 9992 
2 53894 53.2180 258.7034 0001044 62.1558 297.5489 15.44238142 5693 
1 53895U 22119K 26162.33335648 .00541611 00000+0 21336-2 0 9991 
2 53895 53.2157 240.3627 0001516 54.5044 238.8858 15.84925959 5952 
1 53896U 22119L 26162.00046875 -.00000089 00000+0 12493-4 0 9993 
2 53896 53.1599 265.0108 0000827 82.0263 278.0823 15.08831625205775 
1 53897U 22119M 26162.33335648 .00643306 00000+0 67169-2 0 9991 
2 53897 53.2174 250.5876 0000978 88.2151 88.5769 15.61868317 5899 
1 53898U 22119N 26161.59197346 .00000217 00000+0 31759-4 0 9996 
2 53898 53.1598 266.7280 0001197 85.0399 275.0729 15.08829773205716 
1 53899U 22119P 26162.33335648 .00612041 00000+0 20730-2 0 9998 
2 53899 53.2150 240.8092 0001303 55.6164 358.6213 15.87867498 5906 
1 53900U 22119Q 26161.98204233 .00000251 00000+0 33875-4 0 9996 
2 53900 53.1614 264.8962 0001275 92.1877 267.9260 15.08833546205771 
1 53902U 22119S 26161.45304546 .00000549 00000+0 52590-4 0 9993 
2 53902 53.1613 217.3877 0001247 75.7361 284.3769 15.08845285206393 
1 53903U 22119T 26161.60030201 .00000444 00000+0 45983-4 0 9997 
2 53903 53.1603 266.7764 0001254 84.1057 276.0077 15.08830724205717 
1 53904U 22119U 26162.24331991 -.00000356 00000+0 -43000-5 0 9992 
2 53904 53.1598 263.6814 0001118 83.2242 276.8877 15.08832529205810 
1 53905U 22119V 26161.96833097 .00009900 00000+0 64017-3 0 9996 
2 53905 53.1602 255.5381 0001088 106.3313 253.7798 15.08783649205902 
1 53906U 22119W 26161.98664974 .00000523 00000+0 50941-4 0 9999 
2 53906 53.1616 254.9527 0001270 84.3616 275.7520 15.08837562205919 
1 53908U 22119Y 26161.96094860 .00004093 00000+0 27524-3 0 9996 
2 53908 53.1597 255.4917 0001020 85.2079 274.9029 15.08815109205901 
1 53909U 22119Z 26161.57455792 -.00011196 00000+0 -68785-3 0 9997 
2 53909 53.1842 257.3585 0001405 78.0964 282.0185 15.08765715205840 
1 53911U 22119AB 26161.56719012 .00000162 00000+0 28281-4 0 9994 
2 53911 53.1607 257.3006 0001331 83.6559 276.4584 15.08829995205841 
1 53912U 22119AC 26161.97928476 .00000290 00000+0 36336-4 0 9998 
2 53912 53.1627 254.9080 0000983 98.9656 261.1447 15.08832001205917 
1 53913U 22119AD 26161.54876406 .00000011 00000+0 18788-4 0 9999 
2 53913 53.1626 257.1857 0001289 85.7205 274.3934 15.08828633205843 
1 53914U 22119AE 26161.54507895 .00000177 00000+0 29217-4 0 9995 
2 53914 53.1639 257.1673 0001416 90.5110 269.6044 15.08831305205844 
